STARLINK-35017          
1 65292U 25184V   26164.71641052  .00000778  00000+0  57828-4 0  9994
2 65292  97.3619 216.4959 0001568 101.7684 258.3720 15.05668777 45709
STARLINK-34951          
1 65293U 25184W   26164.68040883  .00004852  00000+0  33998-3 0  9994
2 65293  97.3621 216.3925 0001217 103.3465 256.7898 15.05657350 45748
STARLINK-34613          
1 65294U 25184X   26164.69147720 -.00001171  00000+0 -77191-4 0  9991
2 65294  97.3629 216.3757 0002613 111.7201 248.4305 15.05656097 45740
STARLINK-34834          
1 65295U 25184Y   26164.71086832  .00003106  00000+0  21919-3 0  9995
2 65295  97.3616 216.3520 0001682 120.3974 239.7420 15.05649499 45742
STARLINK-34872          
1 65296U 25184Z   26164.69978569  .00002052  00000+0  14616-3 0  9995
2 65296  97.3639 216.3666 0000832 159.8098 200.3163 15.05654523 45741
STARLINK-34899          
1 65323U 25189A   26164.17294737  .00018925  00000+0  61973-3 0  9996
2 65323  53.1573 122.6536 0001177  88.1854 271.9282 15.31716548 45731
STARLINK-34196          
1 65324U 25189B   26164.16393083  .00022930  00000+0  74715-3 0  9999
2 65324  53.1579 122.6160 0001249  89.9428 270.1716 15.31754320 45684
STARLINK-34911          
1 65325U 25189C   26164.57276028  .00019788  00000+0  67838-3 0  9999
2 65325  53.1565 121.6142 0001512 107.0479 253.0687 15.30203312 45787
STARLINK-34902          
1 65326U 25189D   26164.16925666  .00022703  00000+0  77646-3 0  9993
2 65326  53.1578 123.3582 0001524  89.1722 270.9453 15.30193558 45726
STARLINK-34880          
1 65327U 25189E   26164.17136018  .00017293  00000+0  59401-3 0  9997
2 65327  53.1578 123.3738 0001273  94.0187 266.0959 15.30234472 45729
STARLINK-34885          
1 65328U 25189F   26164.57378990  .00027493  00000+0  89393-3 0  9995
2 65328  53.1573 120.9084 0001455  93.6518 266.4650 15.31718590 45739
STARLINK-34908          
1 65329U 25189G   26164.61591360  .00027476  00000+0  93602-3 0  9998
2 65329  53.1591 121.1658 0001220  88.2129 271.9012 15.30212020 45793
STARLINK-34864          
1 65330U 25189H   26164.20595728  .00010309  00000+0  34344-3 0  9992
2 65330  53.1609 122.8763 0001506  91.1767 268.9407 15.31706770 45737
STARLINK-34918          
1 65331U 25189J   26164.16828260  .00019573  00000+0  64051-3 0  9998
2 65331  53.1580 122.6380 0001314  86.5073 273.6079 15.31715521 45679
STARLINK-33890          
1 65332U 25189K   26164.17328131  .00017770  00000+0  58275-3 0  9990
2 65332  53.1573 122.6655 0001287  83.8615 276.2533 15.31714784 44536
STARLINK-34602          
1 65333U 25189L   26164.57412046  .00022938  00000+0  74832-3 0  9993
2 65333  53.1587 120.9062 0001435 101.0630 259.0532 15.31714067 45791
STARLINK-34878          
1 65334U 25189M   26164.21029600  .00162169  00000+0  53372-2 0  9991
2 65334  53.1598 122.9014 0001327 103.5284 256.5865 15.30393120 45732
STARLINK-34874          
1 65335U 25189N   26164.18720247  .00016145  00000+0  55605-3 0  9997
2 65335  53.1573 123.4612 0001355  91.8233 268.2923 15.30200602 45726
STARLINK-34835          
1 65336U 25189P   26164.58227919  .00016322  00000+0  56242-3 0  9995
2 65336  53.1573 121.6686 0001511 107.3501 252.7665 15.30175076 45786
STARLINK-34854          
1 65337U 25189Q   26164.59279384  .00017542  00000+0  57552-3 0  9990
2 65337  53.1591 121.0251 0001251  94.3891 265.7253 15.31710658 45731
STARLINK-34751          
1 65338U 25189R   26164.66668980  .00032899  00000+0  10679-2 0  9993
2 65338  53.1570 120.5257 0001231  90.8661  34.2004 15.31680771  5891
STARLINK-34777          
1 65339U 25189S   26164.58344444  .00031192  00000+0  10111-2 0  9997
2 65339  53.1579 120.9655 0001382  87.9124 272.2036 15.31752127 45804
STARLINK-35020          
1 65340U 25189T   26164.61103266  .00011786  00000+0  39081-3 0  9993
2 65340  53.1587 120.4245 0001444  95.0321 265.0845 15.31711471 45752
STARLINK-35016          
1 65341U 25189U   26164.16608509  .00016458  00000+0  56601-3 0  9992
2 65341  53.1578 123.3308 0001182  85.4497 274.6639 15.30230985 45674
STARLINK-35092          
1 65342U 25189V   26164.61570536  .00016643  00000+0  54688-3 0  9990
2 65342  53.1586 120.4582 0001412  91.3549 268.7614 15.31698854 45712
STARLINK-34838          
1 65343U 25189W   26164.58331166  .00018081  00000+0  62084-3 0  9998
2 65343  53.1586 121.6642 0001563  82.3930 277.7248 15.30213519 45795
STARLINK-35088          
1 65344U 25189X   26164.57592609  .00025785  00000+0  87948-3 0  9994
2 65344  53.1576 121.6278 0001388  97.7060 262.4099 15.30207758 45792
STARLINK-34831          
1 65345U 25189Y   26164.58812472  .00021255  00000+0  69429-3 0  9991
2 65345  53.1579 120.9917 0001304  98.3183 261.7967 15.31720798 45802
STARLINK-34873          
1 65346U 25189Z   26164.58740343  .00015565  00000+0  53612-3 0  9993
2 65346  53.1584 120.9862 0001927  80.0456 280.0763 15.30225785 45803
STARLINK-34881          
1 65347U 25189AA  26164.12199784  .00350474  00000+0  10890-1 0  9991
2 65347  53.1566 123.0583 0001966 124.3018 235.8170 15.31388024 45725
